[{"OBJECT_NAME":"STARLINK-36110","OBJECT_ID":"2025-286W","EPOCH":"2026-03-09T05:49:39.300672","MEAN_MOTION":15.30184781,"ECCENTRICITY":0.00011068,"INCLINATION":53.1609,"RA_OF_ASC_NODE":0.856,"ARG_OF_PERICENTER":73.5701,"MEAN_ANOMALY":286.5422,"EPHEMERIS_TYPE":0,"CLASSIFICATION_TYPE":"U","NORAD_CAT_ID":66945,"ELEMENT_SET_NO":999,"REV_AT_EPOCH":1534,"BSTAR":0.00039006813,"MEAN_MOTION_DOT":0.00011206,"MEAN_MOTION_DDOT":0},{"OBJECT_NAME":"CZ-6A DEB","OBJECT_ID":"2022-151QB","EPOCH":"2026-03-08T18:03:47.471328","MEAN_MOTION":15.32168285,"ECCENTRICITY":0.00205863,"INCLINATION":98.6246,"RA_OF_ASC_NODE":151.4486,"ARG_OF_PERICENTER":181.9757,"MEAN_ANOMALY":178.1404,"EPHEMERIS_TYPE":0,"CLASSIFICATION_TYPE":"U","NORAD_CAT_ID":54890,"ELEMENT_SET_NO":999,"REV_AT_EPOCH":17659,"BSTAR":0.012866954,"MEAN_MOTION_DOT":0.00424465,"MEAN_MOTION_DDOT":0}]
